[
    {
        "Altitude(m)": 604983.052866587,
        "Argument of Periapsis(deg)": 0.0,
        "Eccentricity": 0.0,
        "Inclination(deg)": 60.0,
        "Latitude(deg)": -0.09256220702781877,
        "Longitude(deg)": 140.08391626465948,
        "Mean Anomaly(deg)": 180.0,
        "RAAN(deg)": 60.0,
        "Satellite Name": "Test1 275",
        "Satellite Number": 275,
        "Semi-Major Axis(m)": 6980739.136638005,
        "Time(s)": 0
    },
    {
        "Altitude(m)": 605055.3317312851,
        "Argument of Periapsis(deg)": 0.00010418945913296404,
        "Eccentricity": 0.0,
        "Inclination(deg)": 60.0,
        "Latitude(deg)": -0.6329724817467036,
        "Longitude(deg)": 140.3520403762181,
        "Mean Anomaly(deg)": 180.62010614546185,
        "RAAN(deg)": 59.99957995086026,
        "Satellite Name": "Test1 275",
        "Satellite Number": 275,
        "Semi-Major Axis(m)": 6980739.136638005,
        "Time(s)": 10
    }
]